[{"OBJECT_NAME":"ONEWEB-0674","OBJECT_ID":"2023-029AP","EPOCH":"2026-06-02T08:06:09.566208","MEAN_MOTION":13.14503883,"ECCENTRICITY":0.0002014,"INCLINATION":87.8949,"RA_OF_ASC_NODE":292.676,"ARG_OF_PERICENTER":91.5661,"MEAN_ANOMALY":268.5699,"EPHEMERIS_TYPE":0,"CLASSIFICATION_TYPE":"U","NORAD_CAT_ID":55833,"ELEMENT_SET_NO":999,"REV_AT_EPOCH":15746,"BSTAR":-0.00092113,"MEAN_MOTION_DOT":-3.29e-06,"MEAN_MOTION_DDOT":0.0},{"OBJECT_NAME":"ONEWEB-0675","OBJECT_ID":"2023-029AQ","EPOCH":"2026-06-01T10:29:46.555296","MEAN_MOTION":13.19727621,"ECCENTRICITY":0.0001902,"INCLINATION":87.9154,"RA_OF_ASC_NODE":308.1162,"ARG_OF_PERICENTER":106.234,"MEAN_ANOMALY":253.9003,"EPHEMERIS_TYPE":0,"CLASSIFICATION_TYPE":"U","NORAD_CAT_ID":55834,"ELEMENT_SET_NO":999,"REV_AT_EPOCH":15684,"BSTAR":0.00032963,"MEAN_MOTION_DOT":1.45e-06,"MEAN_MOTION_DDOT":0.0},{"OBJECT_NAME":"ONEWEB-0720","OBJECT_ID":"2023-029AR","EPOCH":"2026-06-02T08:08:30.458688","MEAN_MOTION":13.19726598,"ECCENTRICITY":0.0001539,"INCLINATION":87.9156,"RA_OF_ASC_NODE":307.9367,"ARG_OF_PERICENTER":95.7522,"MEAN_ANOMALY":264.3786,"EPHEMERIS_TYPE":0,"CLASSIFICATION_TYPE":"U","NORAD_CAT_ID":55835,"ELEMENT_SET_NO":999,"REV_AT_EPOCH":15688,"BSTAR":-0.00012457,"MEAN_MOTION_DOT":-3.7e-07,"MEAN_MOTION_DDOT":0.0},{"OBJECT_NAME":"ONEWEB-0537","OBJECT_ID":"2023-043A","EPOCH":"2026-06-02T16:18:01.003392","MEAN_MOTION":13.16593855,"ECCENTRICITY":0.0002186,"INCLINATION":87.9108,"RA_OF_ASC_NODE":231.6516,"ARG_OF_PERICENTER":103.3041,"MEAN_ANOMALY":256.8334,"EPHEMERIS_TYPE":0,"CLASSIFICATION_TYPE":"U","NORAD_CAT_ID":56046,"ELEMENT_SET_NO":999,"REV_AT_EPOCH":15705,"BSTAR":6.621200000000001e-05,"MEAN_MOTION_DOT":3.8e-07,"MEAN_MOTION_DDOT":0.0},{"OBJECT_NAME":"ONEWEB-0538","OBJECT_ID":"2023-043B","EPOCH":"2026-06-02T07:01:43.291488","MEAN_MOTION":13.16594809,"ECCENTRICITY":0.0002001,"INCLINATION":87.9104,"RA_OF_ASC_NODE":231.7314,"ARG_OF_PERICENTER":113.0091,"MEAN_ANOMALY":247.1251,"EPHEMERIS_TYPE":0,"CLASSIFICATION_TYPE":"U","NORAD_CAT_ID":56047,"ELEMENT_SET_NO":999,"REV_AT_EPOCH":15701,"BSTAR":-0.00010781,"MEAN_MOTION_DOT":-2.8e-07,"MEAN_MOTION_DDOT":0.0},{"OBJECT_NAME":"ONEWEB-0546","OBJECT_ID":"2023-043C","EPOCH":"2026-06-02T17:40:05.966688","MEAN_MOTION":13.16594087,"ECCENTRICITY":0.0002609,"INCLINATION":87.9105,"RA_OF_ASC_NODE":231.643,"ARG_OF_PERICENTER":105.9896,"MEAN_ANOMALY":254.1522,"EPHEMERIS_TYPE":0,"CLASSIFICATION_TYPE":"U","NORAD_CAT_ID":56048,"ELEMENT_SET_NO":999,"REV_AT_EPOCH":15706,"BSTAR":0.00049134,"MEAN_MOTION_DOT":2.01e-06,"MEAN_MOTION_DDOT":0.0},{"OBJECT_NAME":"ONEWEB-0547","OBJECT_ID":"2023-043D","EPOCH":"2026-06-02T17:08:44.908224","MEAN_MOTION":13.21824957,"ECCENTRICITY":0.000183,"INCLINATION":87.9261,"RA_OF_ASC_NODE":246.8527,"ARG_OF_PERICENTER":103.513,"MEAN_ANOMALY":256.6208,"EPHEMERIS_TYPE":0,"CLASSIFICATION_TYPE":"U","NORAD_CAT_ID":56049,"ELEMENT_SET_NO":999,"REV_AT_EPOCH":15631,"BSTAR":-0.00012590000000000002,"MEAN_MOTION_DOT":-3.9e-07,"MEAN_MOTION_DDOT":0.0},{"OBJECT_NAME":"ONEWEB-0548","OBJECT_ID":"2023-043E","EPOCH":"2026-06-02T16:25:59.960928","MEAN_MOTION":13.16595755,"ECCENTRICITY":0.0002245,"INCLINATION":87.9105,"RA_OF_ASC_NODE":231.6496,"ARG_OF_PERICENTER":88.3578,"MEAN_ANOMALY":271.781,"EPHEMERIS_TYPE":0,"CLASSIFICATION_TYPE":"U","NORAD_CAT_ID":56050,"ELEMENT_SET_NO":999,"REV_AT_EPOCH":15705,"BSTAR":5.8678e-05,"MEAN_MOTION_DOT":3.5e-07,"MEAN_MOTION_DDOT":0.0},{"OBJECT_NAME":"ONEWEB-0549","OBJECT_ID":"2023-043F","EPOCH":"2026-06-02T17:00:16.577280","MEAN_MOTION":13.21825213,"ECCENTRICITY":0.0001854,"INCLINATION":87.9254,"RA_OF_ASC_NODE":246.8614,"ARG_OF_PERICENTER":110.6499,"MEAN_ANOMALY":249.4834,"EPHEMERIS_TYPE":0,"CLASSIFICATION_TYPE":"U","NORAD_CAT_ID":56051,"ELEMENT_SET_NO":999,"REV_AT_EPOCH":15631,"BSTAR":0.00017846000000000002,"MEAN_MOTION_DOT":8.7e-07,"MEAN_MOTION_DDOT":0.0},{"OBJECT_NAME":"ONEWEB-0550","OBJECT_ID":"2023-043G","EPOCH":"2026-06-02T16:40:54.975072","MEAN_MOTION":13.21825172,"ECCENTRICITY":0.0001995,"INCLINATION":87.9255,"RA_OF_ASC_NODE":246.8609,"ARG_OF_PERICENTER":92.0939,"MEAN_ANOMALY":268.0424,"EPHEMERIS_TYPE":0,"CLASSIFICATION_TYPE":"U","NORAD_CAT_ID":56052,"ELEMENT_SET_NO":999,"REV_AT_EPOCH":15631,"BSTAR":7.929100000000001e-05,"MEAN_MOTION_DOT":4.6e-07,"MEAN_MOTION_DDOT":0.0},{"OBJECT_NAME":"ONEWEB-0551","OBJECT_ID":"2023-043H","EPOCH":"2026-06-02T16:54:15.120288","MEAN_MOTION":13.15548718,"ECCENTRICITY":0.0001716,"INCLINATION":87.8997,"RA_OF_ASC_NODE":262.1119,"ARG_OF_PERICENTER":111.3098,"MEAN_ANOMALY":248.8215,"EPHEMERIS_TYPE":0,"CLASSIFICATION_TYPE":"U","NORAD_CAT_ID":56053,"ELEMENT_SET_NO":999,"REV_AT_EPOCH":15449,"BSTAR":-0.00030154,"MEAN_MOTION_DOT":-1.01e-06,"MEAN_MOTION_DDOT":0.0},{"OBJECT_NAME":"ONEWEB-0552","OBJECT_ID":"2023-043J","EPOCH":"2026-06-02T16:33:38.650752","MEAN_MOTION":13.21827073,"ECCENTRICITY":0.0001839,"INCLINATION":87.9256,"RA_OF_ASC_NODE":246.8685,"ARG_OF_PERICENTER":96.3803,"MEAN_ANOMALY":263.7541,"EPHEMERIS_TYPE":0,"CLASSIFICATION_TYPE":"U","NORAD_CAT_ID":56054,"ELEMENT_SET_NO":999,"REV_AT_EPOCH":15631,"BSTAR":0.0001767,"MEAN_MOTION_DOT":8.6e-07,"MEAN_MOTION_DDOT":0.0},{"OBJECT_NAME":"ONEWEB-0553","OBJECT_ID":"2023-043K","EPOCH":"2026-06-02T15:59:46.419072","MEAN_MOTION":13.16594617,"ECCENTRICITY":0.0002448,"INCLINATION":87.9105,"RA_OF_ASC_NODE":231.6575,"ARG_OF_PERICENTER":101.8576,"MEAN_ANOMALY":258.283,"EPHEMERIS_TYPE":0,"CLASSIFICATION_TYPE":"U","NORAD_CAT_ID":56055,"ELEMENT_SET_NO":999,"REV_AT_EPOCH":15706,"BSTAR":0.00043935,"MEAN_MOTION_DOT":1.81e-06,"MEAN_MOTION_DDOT":0.0},{"OBJECT_NAME":"ONEWEB-0554","OBJECT_ID":"2023-043L","EPOCH":"2026-06-02T15:41:32.604576","MEAN_MOTION":13.16593914,"ECCENTRICITY":0.0002205,"INCLINATION":87.9101,"RA_OF_ASC_NODE":231.6692,"ARG_OF_PERICENTER":92.0202,"MEAN_ANOMALY":268.1182,"EPHEMERIS_TYPE":0,"CLASSIFICATION_TYPE":"U","NORAD_CAT_ID":56056,"ELEMENT_SET_NO":999,"REV_AT_EPOCH":15704,"BSTAR":0.00017230999999999998,"MEAN_MOTION_DOT":7.9e-07,"MEAN_MOTION_DDOT":0.0},{"OBJECT_NAME":"ONEWEB-0555","OBJECT_ID":"2023-043M","EPOCH":"2026-06-02T16:36:15.262848","MEAN_MOTION":13.16596321,"ECCENTRICITY":0.0002633,"INCLINATION":87.9109,"RA_OF_ASC_NODE":231.6496,"ARG_OF_PERICENTER":105.9094,"MEAN_ANOMALY":254.2327,"EPHEMERIS_TYPE":0,"CLASSIFICATION_TYPE":"U","NORAD_CAT_ID":56057,"ELEMENT_SET_NO":999,"REV_AT_EPOCH":15705,"BSTAR":3.4545e-05,"MEAN_MOTION_DOT":2.6e-07,"MEAN_MOTION_DDOT":0.0},{"OBJECT_NAME":"ONEWEB-0557","OBJECT_ID":"2023-043N","EPOCH":"2026-06-02T16:56:45.991104","MEAN_MOTION":13.16593314,"ECCENTRICITY":0.00032,"INCLINATION":87.9104,"RA_OF_ASC_NODE":231.6566,"ARG_OF_PERICENTER":86.529,"MEAN_ANOMALY":273.6207,"EPHEMERIS_TYPE":0,"CLASSIFICATION_TYPE":"U","NORAD_CAT_ID":56058,"ELEMENT_SET_NO":999,"REV_AT_EPOCH":15705,"BSTAR":-0.00013963000000000002,"MEAN_MOTION_DOT":-4.1e-07,"MEAN_MOTION_DDOT":0.0}]