ONEWEB-0674             
1 55833U 23029AP  26153.33761072 -.00000329  00000+0 -92113-3 0  9990
2 55833  87.8949 292.6760 0002014  91.5661 268.5699 13.14503883157462
ONEWEB-0675             
1 55834U 23029AQ  26152.43734439  .00000145  00000+0  32963-3 0  9999
2 55834  87.9154 308.1162 0001902 106.2340 253.9003 13.19727621156845
ONEWEB-0720             
1 55835U 23029AR  26153.33924142 -.00000037  00000+0 -12457-3 0  9990
2 55835  87.9156 307.9367 0001539  95.7522 264.3786 13.19726598156882
ONEWEB-0537             
1 56046U 23043A   26153.67917828  .00000038  00000+0  66212-4 0  9999
2 56046  87.9108 231.6516 0002186 103.3041 256.8334 13.16593855157054
ONEWEB-0538             
1 56047U 23043B   26153.29286217 -.00000028  00000+0 -10781-3 0  9999
2 56047  87.9104 231.7314 0002001 113.0091 247.1251 13.16594809157014
ONEWEB-0546             
1 56048U 23043C   26153.73618017  .00000201  00000+0  49134-3 0  9991
2 56048  87.9105 231.6430 0002609 105.9896 254.1522 13.16594087157063
ONEWEB-0547             
1 56049U 23043D   26153.71440866 -.00000039  00000+0 -12590-3 0  9992
2 56049  87.9261 246.8527 0001830 103.5130 256.6208 13.21824957156315
ONEWEB-0548             
1 56050U 23043E   26153.68472177  .00000035  00000+0  58678-4 0  9992
2 56050  87.9105 231.6496 0002245  88.3578 271.7810 13.16595755157052
ONEWEB-0549             
1 56051U 23043F   26153.70852520  .00000087  00000+0  17846-3 0  9998
2 56051  87.9254 246.8614 0001854 110.6499 249.4834 13.21825213156311
ONEWEB-0550             
1 56052U 23043G   26153.69508073  .00000046  00000+0  79291-4 0  9996
2 56052  87.9255 246.8609 0001995  92.0939 268.0424 13.21825172156311
ONEWEB-0551             
1 56053U 23043H   26153.70434167 -.00000101  00000+0 -30154-3 0  9999
2 56053  87.8997 262.1119 0001716 111.3098 248.8215 13.15548718154495
ONEWEB-0552             
1 56054U 23043J   26153.69003068  .00000086  00000+0  17670-3 0  9998
2 56054  87.9256 246.8685 0001839  96.3803 263.7541 13.21827073156316
ONEWEB-0553             
1 56055U 23043K   26153.66650948  .00000181  00000+0  43935-3 0  9990
2 56055  87.9105 231.6575 0002448 101.8576 258.2830 13.16594617157068
ONEWEB-0554             
1 56056U 23043L   26153.65384959  .00000079  00000+0  17231-3 0  9992
2 56056  87.9101 231.6692 0002205  92.0202 268.1182 13.16593914157040
ONEWEB-0555             
1 56057U 23043M   26153.69184332  .00000026  00000+0  34545-4 0  9990
2 56057  87.9109 231.6496 0002633 105.9094 254.2327 13.16596321157052
ONEWEB-0557             
1 56058U 23043N   26153.70608786 -.00000041  00000+0 -13963-3 0  9996
2 56058  87.9104 231.6566 0003200  86.5290 273.6207 13.16593314157050
